start=new Date('2022-11-10T00:00:00.000Z').valueOf();
sats=[{"RA_OF_ASC_NODE":"80.0674","CENTER_NAME":"EARTH","GP_ID":"217273794","CLASSIFICATION_TYPE":"U","ELEMENT_SET_NO":"999","MEAN_MOTION_DDOT":"0.0000000000000","ARG_OF_PERICENTER":"108.8751","APOAPSIS":"548.443","REV_AT_EPOCH":"9752","FILE":"3650001","OBJECT_NAME":"STARLINK-1980","PERIAPSIS":"546.173","MEAN_ELEMENT_THEORY":"SGP4","NORAD_CAT_ID":"47578","MEAN_ANOMALY":"251.2416","EPHEMERIS_TYPE":"0","TIME_SYSTEM":"UTC","ECCENTRICITY":"0.00016390","PERIOD":"95.594","SITE":"AFETR","OBJECT_ID":"2021-009AG","TLE_LINE2":"2 47578  53.0564  80.0674 0001639 108.8751 251.2416 15.06369084 97526","MEAN_MOTION_DOT":"-0.00004056","TLE_LINE1":"1 47578U 21009AG  22313.77854905 -.00004056  00000-0 -25376-3 0  9992","DECAY_DATE":null,"REF_FRAME":"TEME","INCLINATION":"53.0564","BSTAR":"-0.00025376000000","LAUNCH_DATE":"2021-02-04","MEAN_MOTION":"15.06369084","OBJECT_TYPE":"PAYLOAD","COUNTRY_CODE":"US","SEMIMAJOR_AXIS":"6925.443","RCS_SIZE":"LARGE","EPOCH":"2022-11-09T18:41:06.637920"},{"RA_OF_ASC_NODE":"69.8451","CENTER_NAME":"EARTH","GP_ID":"217272542","CLASSIFICATION_TYPE":"U","ELEMENT_SET_NO":"999","ARG_OF_PERICENTER":"83.7983","MEAN_MOTION_DDOT":"0.0000000000000","REV_AT_EPOCH":"9767","APOAPSIS":"548.181","PERIAPSIS":"546.410","FILE":"3650001","OBJECT_NAME":"STARLINK-1981","NORAD_CAT_ID":"47579","MEAN_ANOMALY":"276.3151","EPHEMERIS_TYPE":"0","MEAN_ELEMENT_THEORY":"SGP4","TIME_SYSTEM":"UTC","PERIOD":"95.594","SITE":"AFETR","ECCENTRICITY":"0.00012790","TLE_LINE2":"2 47579  53.0552  69.8451 0001279  83.7983 276.3151 15.06373214 97670","TLE_LINE1":"1 47579U 21009AH  22313.82736541 -.00015992  00000-0 -10579-2 0  9993","DECAY_DATE":null,"MEAN_MOTION_DOT":"-0.00015992","INCLINATION":"53.0552","REF_FRAME":"TEME","OBJECT_ID":"2021-009AH","MEAN_MOTION":"15.06373214","LAUNCH_DATE":"2021-02-04","BSTAR":"-0.00105790000000","COUNTRY_CODE":"US","OBJECT_TYPE":"PAYLOAD","EPOCH":"2022-11-09T19:51:24.371424","SEMIMAJOR_AXIS":"6925.431","RCS_SIZE":"LARGE"},{"RA_OF_ASC_NODE":"80.0342","CENTER_NAME":"EARTH","GP_ID":"217272792","CLASSIFICATION_TYPE":"U","ELEMENT_SET_NO":"999","ARG_OF_PERICENTER":"92.5697","MEAN_MOTION_DDOT":"0.0000000000000","REV_AT_EPOCH":"9752","APOAPSIS":"548.076","FILE":"3650001","OBJECT_NAME":"STARLINK-1982","PERIAPSIS":"546.436","EPHEMERIS_TYPE":"0","NORAD_CAT_ID":"47580","MEAN_ANOMALY":"267.5428","MEAN_ELEMENT_THEORY":"SGP4","TIME_SYSTEM":"UTC","PERIOD":"95.593","SITE":"AFETR","ECCENTRICITY":"0.00011840","INCLINATION":"53.0543","TLE_LINE1":"1 47580U 21009AJ  22313.78222203  .00000188  00000-0  31506-4 0  9999","DECAY_DATE":null,"MEAN_MOTION_DOT":"0.00000188","REF_FRAME":"TEME","TLE_LINE2":"2 47580  53.0543  80.0342 0001184  92.5697 267.5428 15.06386007 97528","OBJECT_ID":"2021-009AJ","LAUNCH_DATE":"2021-02-04","MEAN_MOTION":"15.06386007","BSTAR":"0.00003150600000","COUNTRY_CODE":"US","OBJECT_TYPE":"PAYLOAD","EPOCH":"2022-11-09T18:46:23.983392","RCS_SIZE":"LARGE","SEMIMAJOR_AXIS":"6925.391"},{"CLASSIFICATION_TYPE":"U","ELEMENT_SET_NO":"999","RA_OF_ASC_NODE":"60.4318","CENTER_NAME":"EARTH","GP_ID":"217274043","APOAPSIS":"548.398","REV_AT_EPOCH":"9779","OBJECT_NAME":"STARLINK-1984","FILE":"3650001","PERIAPSIS":"546.149","MEAN_MOTION_DDOT":"0.0000000000000","ARG_OF_PERICENTER":"114.2929","ECCENTRICITY":"0.00016240","PERIOD":"95.593","SITE":"AFETR","OBJECT_ID":"2021-009AK","DECAY_DATE":null,"TLE_LINE1":"1 47581U 21009AK  22313.69561696 -.00002078  00000-0 -12071-3 0  9999","REF_FRAME":"TEME","MEAN_MOTION_DOT":"-0.00002078","INCLINATION":"53.0573","TLE_LINE2":"2 47581  53.0573  60.4318 0001624 114.2929 245.8230 15.06380393 97797","MEAN_ELEMENT_THEORY":"SGP4","EPHEMERIS_TYPE":"0","NORAD_CAT_ID":"47581","MEAN_ANOMALY":"245.8230","TIME_SYSTEM":"UTC","OBJECT_TYPE":"PAYLOAD","COUNTRY_CODE":"US","RCS_SIZE":"LARGE","SEMIMAJOR_AXIS":"6925.409","EPOCH":"2022-11-09T16:41:41.305344","MEAN_MOTION":"15.06380393","LAUNCH_DATE":"2021-02-04","BSTAR":"-0.00012071000000"},{"CLASSIFICATION_TYPE":"U","ELEMENT_SET_NO":"999","CENTER_NAME":"EARTH","RA_OF_ASC_NODE":"80.7927","GP_ID":"217246983","REV_AT_EPOCH":"9810","APOAPSIS":"548.235","FILE":"3649774","OBJECT_NAME":"STARLINK-1986","PERIAPSIS":"546.239","ARG_OF_PERICENTER":"93.2304","MEAN_MOTION_DDOT":"0.0000000000000","PERIOD":"95.593","SITE":"AFETR","ECCENTRICITY":"0.00014410","TLE_LINE1":"1 47582U 21009AL  22313.61635267 -.00001013  00000-0 -49140-4 0  9994","MEAN_MOTION_DOT":"-0.00001013","DECAY_DATE":null,"REF_FRAME":"TEME","INCLINATION":"53.0537","TLE_LINE2":"2 47582  53.0537  80.7927 0001441  93.2304 266.8849 15.06392321 98108","OBJECT_ID":"2021-009AL","EPHEMERIS_TYPE":"0","MEAN_ANOMALY":"266.8849","NORAD_CAT_ID":"47582","MEAN_ELEMENT_THEORY":"SGP4","TIME_SYSTEM":"UTC","COUNTRY_CODE":"US","OBJECT_TYPE":"PAYLOAD","EPOCH":"2022-11-09T14:47:32.870688","RCS_SIZE":"LARGE","SEMIMAJOR_AXIS":"6925.372","LAUNCH_DATE":"2021-02-04","MEAN_MOTION":"15.06392321","BSTAR":"-0.00004914000000"},{"FILE":"3650001","PERIAPSIS":"546.317","OBJECT_NAME":"STARLINK-1987","REV_AT_EPOCH":"9751","APOAPSIS":"548.171","ARG_OF_PERICENTER":"100.3722","MEAN_MOTION_DDOT":"0.0000000000000","ELEMENT_SET_NO":"999","CLASSIFICATION_TYPE":"U","GP_ID":"217273043","RA_OF_ASC_NODE":"80.5894","CENTER_NAME":"EARTH","EPOCH":"2022-11-09T15:51:14.322816","SEMIMAJOR_AXIS":"6925.379","RCS_SIZE":"LARGE","COUNTRY_CODE":"US","OBJECT_TYPE":"PAYLOAD","MEAN_MOTION":"15.06390096","LAUNCH_DATE":"2021-02-04","BSTAR":"-0.00002070300000","TLE_LINE2":"2 47583  53.0555  80.5894 0001339 100.3722 259.7418 15.06390096 97514","MEAN_MOTION_DOT":"-0.00000590","TLE_LINE1":"1 47583U 21009AM  22313.66058244 -.00000590  00000-0 -20703-4 0  9997","DECAY_DATE":null,"INCLINATION":"53.0555","REF_FRAME":"TEME","OBJECT_ID":"2021-009AM","SITE":"AFETR","PERIOD":"95.593","ECCENTRICITY":"0.00013390","TIME_SYSTEM":"UTC","NORAD_CAT_ID":"47583","MEAN_ANOMALY":"259.7418","EPHEMERIS_TYPE":"0","MEAN_ELEMENT_THEORY":"SGP4"},{"OBJECT_TYPE":"PAYLOAD","COUNTRY_CODE":"US","SEMIMAJOR_AXIS":"6925.390","RCS_SIZE":"LARGE","EPOCH":"2022-11-09T18:03:55.927296","BSTAR":"-0.00022700000000","LAUNCH_DATE":"2021-02-04","MEAN_MOTION":"15.06386625","ECCENTRICITY":"0.00014540","SITE":"AFETR","PERIOD":"95.593","OBJECT_ID":"2021-009AP","TLE_LINE2":"2 47585  53.0528  80.1747 0001454  96.1800 263.9355 15.06386625 97527","DECAY_DATE":null,"TLE_LINE1":"1 47585U 21009AP  22313.75273064 -.00003660  00000-0 -22700-3 0  9997","MEAN_MOTION_DOT":"-0.00003660","INCLINATION":"53.0528","REF_FRAME":"TEME","MEAN_ELEMENT_THEORY":"SGP4","MEAN_ANOMALY":"263.9355","NORAD_CAT_ID":"47585","EPHEMERIS_TYPE":"0","TIME_SYSTEM":"UTC","APOAPSIS":"548.262","REV_AT_EPOCH":"9752","PERIAPSIS":"546.248","FILE":"3650001","OBJECT_NAME":"STARLINK-1989","MEAN_MOTION_DDOT":"0.0000000000000","ARG_OF_PERICENTER":"96.1800","CLASSIFICATION_TYPE":"U","ELEMENT_SET_NO":"999","CENTER_NAME":"EARTH","RA_OF_ASC_NODE":"80.1747","GP_ID":"217273293"},{"ARG_OF_PERICENTER":"80.1883","MEAN_MOTION_DDOT":"0.0000000000000","REV_AT_EPOCH":"9725","APOAPSIS":"548.190","OBJECT_NAME":"STARLINK-1990","FILE":"3650001","PERIAPSIS":"546.323","RA_OF_ASC_NODE":"99.9529","CENTER_NAME":"EARTH","GP_ID":"217273543","CLASSIFICATION_TYPE":"U","ELEMENT_SET_NO":"999","BSTAR":"-0.00004660000000","LAUNCH_DATE":"2021-02-04","MEAN_MOTION":"15.06386124","COUNTRY_CODE":"US","OBJECT_TYPE":"PAYLOAD","EPOCH":"2022-11-09T19:15:36.487296","SEMIMAJOR_AXIS":"6925.391","RCS_SIZE":"LARGE","NORAD_CAT_ID":"47586","MEAN_ANOMALY":"279.9258","EPHEMERIS_TYPE":"0","MEAN_ELEMENT_THEORY":"SGP4","TIME_SYSTEM":"UTC","PERIOD":"95.593","SITE":"AFETR","ECCENTRICITY":"0.00013480","TLE_LINE2":"2 47586  53.0549  99.9529 0001348  80.1883 279.9258 15.06386124 97256","MEAN_MOTION_DOT":"-0.00000975","TLE_LINE1":"1 47586U 21009AQ  22313.80250564 -.00000975  00000-0 -46600-4 0  9996","DECAY_DATE":null,"INCLINATION":"53.0549","REF_FRAME":"TEME","OBJECT_ID":"2021-009AQ"},{"TLE_LINE1":"1 47587U 21009AR  22313.59886114 -.00003401  00000-0 -20970-3 0  9997","INCLINATION":"53.0556","DECAY_DATE":null,"MEAN_MOTION_DOT":"-0.00003401","REF_FRAME":"TEME","TLE_LINE2":"2 47587  53.0556  70.8759 0001236  90.2467 269.8663 15.06367457 98240","OBJECT_ID":"2021-009AR","PERIOD":"95.594","SITE":"AFETR","ECCENTRICITY":"0.00012360","TIME_SYSTEM":"UTC","EPHEMERIS_TYPE":"0","NORAD_CAT_ID":"47587","MEAN_ANOMALY":"269.8663","MEAN_ELEMENT_THEORY":"SGP4","EPOCH":"2022-11-09T14:22:21.602496","RCS_SIZE":"LARGE","SEMIMAJOR_AXIS":"6925.448","COUNTRY_CODE":"US","OBJECT_TYPE":"PAYLOAD","LAUNCH_DATE":"2021-02-04","MEAN_MOTION":"15.06367457","BSTAR":"-0.00020970000000","ELEMENT_SET_NO":"999","CLASSIFICATION_TYPE":"U","GP_ID":"217246999","CENTER_NAME":"EARTH","RA_OF_ASC_NODE":"70.8759","FILE":"3649786","OBJECT_NAME":"STARLINK-1991","PERIAPSIS":"546.457","REV_AT_EPOCH":"9824","APOAPSIS":"548.169","ARG_OF_PERICENTER":"90.2467","MEAN_MOTION_DDOT":"0.0000000000000"},{"SITE":"AFETR","PERIOD":"95.594","ECCENTRICITY":"0.00014220","DECAY_DATE":null,"TLE_LINE1":"1 47588U 21009AS  22313.78960870 -.00003425  00000-0 -21130-3 0  9996","INCLINATION":"53.0558","MEAN_MOTION_DOT":"-0.00003425","REF_FRAME":"TEME","TLE_LINE2":"2 47588  53.0558  79.9991 0001422  95.3048 264.8103 15.06373267 97530","OBJECT_ID":"2021-009AS","EPHEMERIS_TYPE":"0","NORAD_CAT_ID":"47588","MEAN_ANOMALY":"264.8103","MEAN_ELEMENT_THEORY":"SGP4","TIME_SYSTEM":"UTC","COUNTRY_CODE":"US","OBJECT_TYPE":"PAYLOAD","EPOCH":"2022-11-09T18:57:02.191680","RCS_SIZE":"LARGE","SEMIMAJOR_AXIS":"6925.430","LAUNCH_DATE":"2021-02-04","MEAN_MOTION":"15.06373267","BSTAR":"-0.00021130000000","CLASSIFICATION_TYPE":"U","ELEMENT_SET_NO":"999","RA_OF_ASC_NODE":"79.9991","CENTER_NAME":"EARTH","GP_ID":"217272543","REV_AT_EPOCH":"9753","APOAPSIS":"548.280","FILE":"3650001","OBJECT_NAME":"STARLINK-1993","PERIAPSIS":"546.311","ARG_OF_PERICENTER":"95.3048","MEAN_MOTION_DDOT":"0.0000000000000"}];
